[{"OBJECT_NAME":"STARLINK-6126","OBJECT_ID":"2023-046AJ","EPOCH":"2026-03-09T22:00:01.999584","MEAN_MOTION":15.125351,"ECCENTRICITY":0.00023023,"INCLINATION":42.9998,"RA_OF_ASC_NODE":144.9048,"ARG_OF_PERICENTER":271.6853,"MEAN_ANOMALY":109.3366,"EPHEMERIS_TYPE":0,"CLASSIFICATION_TYPE":"U","NORAD_CAT_ID":56124,"ELEMENT_SET_NO":999,"REV_AT_EPOCH":577,"BSTAR":0.0675572,"MEAN_MOTION_DOT":0.01299298,"MEAN_MOTION_DDOT":0},{"OBJECT_NAME":"FORGESTAR-1","OBJECT_ID":"2025-135U","EPOCH":"2026-03-09T20:36:20.241504","MEAN_MOTION":15.22632363,"ECCENTRICITY":0.00019317,"INCLINATION":97.456,"RA_OF_ASC_NODE":185.1959,"ARG_OF_PERICENTER":126.9955,"MEAN_ANOMALY":233.1458,"EPHEMERIS_TYPE":0,"CLASSIFICATION_TYPE":"U","NORAD_CAT_ID":64546,"ELEMENT_SET_NO":999,"REV_AT_EPOCH":3978,"BSTAR":0.0004351723,"MEAN_MOTION_DOT":0.00010058,"MEAN_MOTION_DDOT":0}]
